NORAD_CAT_ID,OBJECT_NAME,OBJECT_TYPE,EPOCH,MEAN_MOTION,ECCENTRICITY,INCLINATION,RA_OF_ASC_NODE,ARG_OF_PERICENTER,MEAN_ANOMALY,BSTAR,MEAN_MOTION_DOT,MEAN_MOTION_DDOT,TLE_LINE0,TLE_LINE1,TLE_LINE2,SEMIMAJOR_AXIS,PERIOD,APOGEE,PERIGEE,DECAYED
53923.0,STARLINK-5004,PAYLOAD,2024-05-18 21:56:38,15.08824099,0.0001709,53.2168,35.7956,113.9957,246.1214,0.00087098,0.00013595,0.0,0 STARLINK-5004,1 53923U 22119AP  24139.91433752  .00013595  00000-0  87098-3 0  9998,2 53923  53.2168  35.7956 0001709 113.9957 246.1214 15.08824099 92227,6917.929,95.439,540.976,538.612,0.0
53923.0,STARLINK-5004,PAYLOAD,2024-05-19 02:42:48,15.08827558,0.0001526,53.2175,34.9038,110.2024,249.9133,0.0027739,0.0004412,0.0,0 STARLINK-5004,1 53923U 22119AP  24140.11306265  .00044120  00000-0  27739-2 0  9993,2 53923  53.2175  34.9038 0001526 110.2024 249.9133 15.08827558 92256,6917.918,95.438,540.839,538.728,0.0
53923.0,STARLINK-5004,PAYLOAD,2024-05-19 20:12:03,15.08842772,0.000107,53.2178,31.6304,84.2069,275.9045,0.0016752,0.00026475,0.0,0 STARLINK-5004,1 53923U 22119AP  24140.84171040  .00026475  00000-0  16752-2 0  9990,2 53923  53.2178  31.6304 0001070  84.2069 275.9045 15.08842772 91943,6917.872,95.437,540.477,538.997,0.0
53923.0,STARLINK-5004,PAYLOAD,2024-05-20 02:33:36,15.08841892,0.0001702,53.2188,30.4425,115.2569,244.86,0.0010479,0.0001643,0.0,0 STARLINK-5004,1 53923U 22119AP  24141.10667012  .00016430  00000-0  10479-2 0  9999,2 53923  53.2188  30.4425 0001702 115.2569 244.8600 15.08841892 91985,6917.875,95.437,540.917,538.562,0.0
53923.0,STARLINK-5004,PAYLOAD,2024-05-20 20:02:50,15.08847271,0.0001614,53.2184,27.1704,116.7142,243.4015,0.00047839,7.335e-05,0.0,0 STARLINK-5004,1 53923U 22119AP  24141.83530831  .00007335  00000-0  47839-3 0  9992,2 53923  53.2184  27.1704 0001614 116.7142 243.4015 15.08847271 92094,6917.858,95.437,540.84,538.607,0.0
53923.0,STARLINK-5004,PAYLOAD,2024-05-21 02:24:23,15.08851508,0.0001514,53.218,25.981,115.0729,245.042,0.00048834,7.495e-05,0.0,0 STARLINK-5004,1 53923U 22119AP  24142.10026625  .00007495  00000-0  48834-3 0  9997,2 53923  53.2180  25.9810 0001514 115.0729 245.0420 15.08851508 92553,6917.845,95.437,540.758,538.663,0.0
53923.0,STARLINK-5004,PAYLOAD,2024-05-21 19:53:37,15.08850656,0.0001458,53.2184,22.7101,92.4487,267.6672,0.00021318,3.107e-05,0.0,0 STARLINK-5004,1 53923U 22119AP  24142.82890380  .00003107  00000-0  21318-3 0  9997,2 53923  53.2184  22.7101 0001458  92.4487 267.6672 15.08850656 92249,6917.848,95.437,540.721,538.704,0.0
53923.0,STARLINK-5004,PAYLOAD,2024-05-21 21:29:00,15.08850455,0.0001393,53.2179,22.4126,94.4052,265.7099,0.0002124,3.095e-05,0.0,0 STARLINK-5004,1 53923U 22119AP  24142.89514330  .00003095  00000-0  21240-3 0  9992,2 53923  53.2179  22.4126 0001393  94.4052 265.7099 15.08850455 92671,6917.848,95.437,540.677,538.75,0.0
53923.0,STARLINK-5004,PAYLOAD,2024-05-22 21:19:46,15.0885341,0.0001539,53.2177,17.9518,98.3752,261.7415,0.00017094,2.435e-05,0.0,0 STARLINK-5004,1 53923U 22119AP  24143.88873583  .00002435  00000-0  17094-3 0  9999,2 53923  53.2177  17.9518 0001539  98.3752 261.7415 15.08853410 92824,6917.839,95.437,540.769,538.64,0.0
53923.0,STARLINK-5004,PAYLOAD,2024-05-23 02:05:55,15.08859581,0.0001605,53.2179,17.0596,101.7079,258.4093,0.00026219,3.889e-05,0.0,0 STARLINK-5004,1 53923U 22119AP  24144.08745141  .00003889  00000-0  26219-3 0  9993,2 53923  53.2179  17.0596 0001605 101.7079 258.4093 15.08859581 92435,6917.821,95.436,540.796,538.575,0.0
53923.0,STARLINK-5004,PAYLOAD,2024-05-23 21:10:33,15.08844522,0.0001415,53.2177,13.4843,116.1651,243.9487,1.0543e-05,-1.2e-06,0.0,0 STARLINK-5004,1 53923U 22119AP  24144.88233331 -.00000120  00000-0  10543-4 0  9994,2 53923  53.2177  13.4843 0001415 116.1651 243.9487 15.08844522 92977,6917.867,95.437,540.71,538.753,0.0
53923.0,STARLINK-5004,PAYLOAD,2024-05-23 22:45:56,15.0884293,0.0001183,53.2169,13.1875,105.0128,255.0996,-3.6111e-05,-8.63e-06,0.0,0 STARLINK-5004,1 53923U 22119AP  24144.94857393 -.00000863  00000-0 -36111-4 0  9995,2 53923  53.2169  13.1875 0001183 105.0128 255.0996 15.08842930 92563,6917.871,95.437,540.555,538.918,0.0
53923.0,STARLINK-5004,PAYLOAD,2024-05-24 14:39:48,15.08842636,0.000124,53.2159,10.2236,121.2659,238.8455,-0.00012015,-2.2e-05,0.0,0 STARLINK-5004,1 53923U 22119AP  24145.61097467 -.00002200  00000-0 -12015-3 0  9991,2 53923  53.2159  10.2236 0001240 121.2659 238.8455 15.08842636 93084,6917.872,95.437,540.595,538.88,0.0
53923.0,STARLINK-5004,PAYLOAD,2024-05-24 22:36:44,15.08842015,0.0001178,53.2167,8.7354,92.2664,267.8463,-5.7801e-05,-1.208e-05,0.0,0 STARLINK-5004,1 53923U 22119AP  24145.94217831 -.00001208  00000-0 -57801-4 0  9996,2 53923  53.2167   8.7354 0001178  92.2664 267.8463 15.08842015 93137,6917.874,95.437,540.554,538.924,0.0
53923.0,STARLINK-5004,PAYLOAD,2024-05-25 08:09:02,15.08843758,9.05e-05,53.2164,6.9529,99.1884,260.9211,9.6684e-07,-2.72e-06,0.0,0 STARLINK-5004,1 53923U 22119AP  24146.33961560 -.00000272  00000-0  96684-6 0  9998,2 53923  53.2164   6.9529 0000905  99.1884 260.9211 15.08843758 92774,6917.869,95.437,540.36,539.108,0.0
53923.0,STARLINK-5004,PAYLOAD,2024-05-25 14:30:36,15.08831836,0.0001567,53.2164,5.762,82.6938,277.4232,7.3706e-05,8.85e-06,0.0,0 STARLINK-5004,1 53923U 22119AP  24146.60458641  .00000885  00000-0  73706-4 0  9996,2 53923  53.2164   5.7620 0001567  82.6938 277.4232 15.08831836 93237,6917.905,95.438,540.854,538.686,0.0
53923.0,STARLINK-5004,PAYLOAD,2024-05-25 20:52:08,15.08829116,0.0001009,53.2157,4.5732,89.2822,270.8286,3.3562e-05,2.46e-06,0.0,0 STARLINK-5004,1 53923U 22119AP  24146.86954780  .00000246  00000-0  33562-4 0  9996,2 53923  53.2157   4.5732 0001009  89.2822 270.8286 15.08829116 92857,6917.914,95.438,540.477,539.081,0.0
53923.0,STARLINK-5004,PAYLOAD,2024-05-26 00:02:55,15.08834718,0.0001058,53.2166,3.9774,81.8544,278.2568,0.00012407,1.687e-05,0.0,0 STARLINK-5004,1 53923U 22119AP  24147.00202696  .00001687  00000-0  12407-3 0  9999,2 53923  53.2166   3.9774 0001058  81.8544 278.2568 15.08834718 93297,6917.897,95.438,540.493,539.03,0.0
53923.0,STARLINK-5004,PAYLOAD,2024-05-26 20:42:55,15.08841303,0.0001063,53.2173,0.113,85.9292,274.1822,0.00022578,3.307e-05,0.0,0 STARLINK-5004,1 53923U 22119AP  24147.86314604  .00003307  00000-0  22578-3 0  9997,2 53923  53.2173   0.1130 0001063  85.9292 274.1822 15.08841303 93006,6917.876,95.437,540.477,539.006,0.0
53923.0,STARLINK-5004,PAYLOAD,2024-05-27 14:12:10,15.08839437,0.0001168,53.217,356.8414,81.2768,278.8357,0.00023083,3.388e-05,0.0,0 STARLINK-5004,1 53923U 22119AP  24148.59178765  .00003388  00000-0  23083-3 0  9995,2 53923  53.2170 356.8414 0001168  81.2768 278.8357 15.08839437 93539,6917.882,95.438,540.555,538.939,0.0
53923.0,STARLINK-5004,PAYLOAD,2024-05-27 20:33:43,15.08838633,0.000104,53.2171,355.6509,83.8126,276.2985,0.00011192,1.494e-05,0.0,0 STARLINK-5004,1 53923U 22119AP  24148.85674791  .00001494  00000-0  11192-3 0  9998,2 53923  53.2171 355.6509 0001040  83.8126 276.2985 15.08838633 93151,6917.885,95.438,540.469,539.03,0.0
53923.0,STARLINK-5004,PAYLOAD,2024-05-27 23:44:29,15.08838563,0.0001065,53.2173,355.0566,87.1709,272.9405,0.00010006,1.305e-05,0.0,0 STARLINK-5004,1 53923U 22119AP  24148.98922796  .00001305  00000-0  10006-3 0  9997,2 53923  53.2173 355.0566 0001065  87.1709 272.9405 15.08838563 93591,6917.885,95.438,540.487,539.013,0.0
53923.0,STARLINK-5004,PAYLOAD,2024-05-28 21:59:53,15.08841641,0.0001039,53.218,350.8935,99.4653,260.6457,5.3723e-05,5.67e-06,0.0,0 STARLINK-5004,1 53923U 22119AP  24149.91658598  .00000567  00000-0  53723-4 0  9990,2 53923  53.2180 350.8935 0001039  99.4653 260.6457 15.08841641 93735,6917.875,95.437,540.459,539.022,0.0
53923.0,STARLINK-5004,PAYLOAD,2024-05-28 23:35:16,15.08841462,0.0001048,53.2181,350.5964,100.1679,259.9431,4.7743e-05,4.72e-06,0.0,0 STARLINK-5004,1 53923U 22119AP  24149.98282594  .00000472  00000-0  47743-4 0  9996,2 53923  53.2181 350.5964 0001048 100.1679 259.9431 15.08841462 93322,6917.876,95.437,540.466,539.016,0.0
53923.0,STARLINK-5004,PAYLOAD,2024-05-29 13:53:44,15.08836925,0.0001059,53.2179,347.92,102.926,257.185,8.165e-05,1.012e-05,0.0,0 STARLINK-5004,1 53923U 22119AP  24150.57898843  .00001012  00000-0  81650-4 0  9999,2 53923  53.2179 347.9200 0001059 102.9260 257.1850 15.08836925 93839,6917.89,95.438,540.487,539.022,0.0
53923.0,STARLINK-5004,PAYLOAD,2024-05-29 20:15:17,15.08837111,0.0001054,53.2177,346.7307,103.2312,256.8797,7.6879e-05,9.36e-06,0.0,0 STARLINK-5004,1 53923U 22119AP  24150.84394941  .00000936  00000-0  76879-4 0  9990,2 53923  53.2177 346.7307 0001054 103.2312 256.8797 15.08837111 93877,6917.889,95.438,540.483,539.025,0.0
53923.0,STARLINK-5004,PAYLOAD,2024-05-30 13:44:31,15.08840406,0.0001036,53.2177,343.4598,99.191,260.9199,8.0995e-05,1.002e-05,0.0,0 STARLINK-5004,1 53923U 22119AP  24151.57258882  .00001002  00000-0  80995-4 0  9993,2 53923  53.2177 343.4598 0001036  99.1910 260.9199 15.08840406 93985,6917.879,95.438,540.461,539.027,0.0
53923.0,STARLINK-5004,PAYLOAD,2024-05-30 21:41:27,15.08842209,0.0001038,53.2175,341.9732,97.1594,262.9516,8.8764e-05,1.125e-05,0.0,0 STARLINK-5004,1 53923U 22119AP  24151.90378771  .00001125  00000-0  88764-4 0  9998,2 53923  53.2175 341.9732 0001038  97.1594 262.9516 15.08842209 94039,6917.874,95.437,540.457,539.021,0.0
53923.0,STARLINK-5004,PAYLOAD,2024-05-31 19:56:51,15.08837035,0.0001359,53.219,337.8103,92.2366,267.8781,7.1223e-05,8.46e-06,0.0,0 STARLINK-5004,1 53923U 22119AP  24152.83115301  .00000846  00000-0  71223-4 0  9990,2 53923  53.2190 337.8103 0001359  92.2366 267.8781 15.08837035 93758,6917.889,95.438,540.695,538.814,0.0
53923.0,STARLINK-5004,PAYLOAD,2024-05-31 21:32:14,15.08837726,0.0001368,53.219,337.5115,91.0077,269.1072,7.4206e-05,8.93e-06,0.0,0 STARLINK-5004,1 53923U 22119AP  24152.89739262  .00000893  00000-0  74206-4 0  9990,2 53923  53.2190 337.5115 0001368  91.0077 269.1072 15.08837726 94187,6917.887,95.438,540.699,538.806,0.0
